{
  "type": "FeatureCollection",
  "features": [
    {
      "type": "Feature",
      "properties": {
        "norad_id": 38867,
        "name": "INTELSAT 23 (IS-23)",
        "group": "intelsat",
        "lat": 0.03467268880884284,
        "lon": 167.20695147940347,
        "alt_km": 35782.84541887051,
        "timestamp": "2025-12-16T08:59:42.826841+00:00",
        "meta_object_name": "INTELSAT 23 (IS-23)",
        "meta_object_id": "2012-057A",
        "meta_epoch": "2025-12-15T18:16:18.574176",
        "meta_mean_motion": 1.0027729,
        "meta_eccentricity": 5.459e-05,
        "meta_inclination": 0.0474,
        "meta_ra_of_asc_node": 95.7976,
        "meta_arg_of_pericenter": 111.0843,
        "meta_mean_anomaly": 98.873,
        "meta_ephemeris_type": 0,
        "meta_classification_type": "U",
        "meta_norad_cat_id": 38867,
        "meta_element_set_no": 999,
        "meta_rev_at_epoch": 4811,
        "meta_bstar": 0,
        "meta_mean_motion_dot": -2.62e-06,
        "meta_mean_motion_ddot": 0,
        "tle_line1": "1 38867U 12057A   25349.76132609 -.00000262  00000+0  00000+0 0  9993",
        "tle_line2": "2 38867   0.0474  95.7976 0000545 111.0843  98.8730  1.00277290 48111"
      },
      "geometry": {
        "type": "Point",
        "coordinates": [
          167.20695147940347,
          0.03467268880884284
        ]
      }
    },
    {
      "type": "Feature",
      "properties": {
        "norad_id": 39360,
        "name": "FM-6",
        "group": "intelsat",
        "lat": 0.015221859705789133,
        "lon": 103.99723102761018,
        "alt_km": 35783.084476212105,
        "timestamp": "2025-12-16T08:59:42.826855+00:00",
        "meta_object_name": "FM-6",
        "meta_object_id": "2013-058A",
        "meta_epoch": "2025-12-15T08:27:38.617056",
        "meta_mean_motion": 1.00269303,
        "meta_eccentricity": 0.00029093,
        "meta_inclination": 0.0082,
        "meta_ra_of_asc_node": 55.5333,
        "meta_arg_of_pericenter": 120.9594,
        "meta_mean_anomaly": 278.5314,
        "meta_ephemeris_type": 0,
        "meta_classification_type": "U",
        "meta_norad_cat_id": 39360,
        "meta_element_set_no": 999,
        "meta_rev_at_epoch": 4423,
        "meta_bstar": 0,
        "meta_mean_motion_dot": 4e-08,
        "meta_mean_motion_ddot": 0,
        "tle_line1": "1 39360U 13058A   25349.35253029  .00000004  00000+0  00000+0 0  9992",
        "tle_line2": "2 39360   0.0082  55.5333 0002909 120.9594 278.5314  1.00269303 44234"
      },
      "geometry": {
        "type": "Point",
        "coordinates": [
          103.99723102761018,
          0.015221859705789133
        ]
      }
    },
    {
      "type": "Feature",
      "properties": {
        "norad_id": 40271,
        "name": "INTELSAT 30 (IS-30)",
        "group": "intelsat",
        "lat": 0.02779845603205318,
        "lon": 125.10118599676989,
        "alt_km": 35785.47633975544,
        "timestamp": "2025-12-16T08:59:42.826867+00:00",
        "meta_object_name": "INTELSAT 30 (IS-30)",
        "meta_object_id": "2014-062A",
        "meta_epoch": "2025-12-15T04:22:30.006336",
        "meta_mean_motion": 1.00262844,
        "meta_eccentricity": 0.00014931,
        "meta_inclination": 0.014,
        "meta_ra_of_asc_node": 18.4031,
        "meta_arg_of_pericenter": 46.4436,
        "meta_mean_anomaly": 349.8109,
        "meta_ephemeris_type": 0,
        "meta_classification_type": "U",
        "meta_norad_cat_id": 40271,
        "meta_element_set_no": 999,
        "meta_rev_at_epoch": 494,
        "meta_bstar": 0,
        "meta_mean_motion_dot": -1.29e-06,
        "meta_mean_motion_ddot": 0,
        "tle_line1": "1 40271U 14062A   25349.18229174 -.00000129  00000+0  00000+0 0  9995",
        "tle_line2": "2 40271   0.0140  18.4031 0001493  46.4436 349.8109  1.00262844  4940"
      },
      "geometry": {
        "type": "Point",
        "coordinates": [
          125.10118599676989,
          0.02779845603205318
        ]
      }
    },
    {
      "type": "Feature",
      "properties": {
        "norad_id": 40333,
        "name": "DIRECTV 14",
        "group": "intelsat",
        "lat": 0.017548129460492286,
        "lon": 120.9514521875642,
        "alt_km": 35784.843338191116,
        "timestamp": "2025-12-16T08:59:42.826880+00:00",
        "meta_object_name": "DIRECTV 14",
        "meta_object_id": "2014-078B",
        "meta_epoch": "2025-12-15T21:28:34.747104",
        "meta_mean_motion": 1.0027094,
        "meta_eccentricity": 4.528e-05,
        "meta_inclination": 0.0012,
        "meta_ra_of_asc_node": 6.335,
        "meta_arg_of_pericenter": 153.1021,
        "meta_mean_anomaly": 148.274,
        "meta_ephemeris_type": 0,
        "meta_classification_type": "U",
        "meta_norad_cat_id": 40333,
        "meta_element_set_no": 999,
        "meta_rev_at_epoch": 4020,
        "meta_bstar": 0,
        "meta_mean_motion_dot": -1.03e-06,
        "meta_mean_motion_ddot": 0,
        "tle_line1": "1 40333U 14078B   25349.89484661 -.00000103  00000+0  00000+0 0  9995",
        "tle_line2": "2 40333   0.0012   6.3350 0000452 153.1021 148.2740  1.00270940 40204"
      },
      "geometry": {
        "type": "Point",
        "coordinates": [
          120.9514521875642,
          0.017548129460492286
        ]
      }
    },
    {
      "type": "Feature",
      "properties": {
        "norad_id": 40663,
        "name": "DIRECTV 15",
        "group": "intelsat",
        "lat": 0.032808858634535455,
        "lon": 117.30919353164599,
        "alt_km": 35786.96632774051,
        "timestamp": "2025-12-16T08:59:42.826892+00:00",
        "meta_object_name": "DIRECTV 15",
        "meta_object_id": "2015-026A",
        "meta_epoch": "2025-12-15T21:27:34.843392",
        "meta_mean_motion": 1.00269327,
        "meta_eccentricity": 1.542e-05,
        "meta_inclination": 0.0395,
        "meta_ra_of_asc_node": 83.2916,
        "meta_arg_of_pericenter": 286.4777,
        "meta_mean_anomaly": 294.0471,
        "meta_ephemeris_type": 0,
        "meta_classification_type": "U",
        "meta_norad_cat_id": 40663,
        "meta_element_set_no": 999,
        "meta_rev_at_epoch": 3862,
        "meta_bstar": 0,
        "meta_mean_motion_dot": -8e-07,
        "meta_mean_motion_ddot": 0,
        "tle_line1": "1 40663U 15026A   25349.89415328 -.00000080  00000+0  00000+0 0  9993",
        "tle_line2": "2 40663   0.0395  83.2916 0000154 286.4777 294.0471  1.00269327 38624"
      },
      "geometry": {
        "type": "Point",
        "coordinates": [
          117.30919353164599,
          0.032808858634535455
        ]
      }
    },
    {
      "type": "Feature",
      "properties": {
        "norad_id": 40664,
        "name": "SKY MEXICO-1",
        "group": "intelsat",
        "lat": -0.005170308427205326,
        "lon": 141.40222214260896,
        "alt_km": 35793.972870739686,
        "timestamp": "2025-12-16T08:59:42.826904+00:00",
        "meta_object_name": "SKY MEXICO-1",
        "meta_object_id": "2015-026B",
        "meta_epoch": "2025-12-15T21:34:26.685408",
        "meta_mean_motion": 1.00271624,
        "meta_eccentricity": 0.00024269,
        "meta_inclination": 0.0207,
        "meta_ra_of_asc_node": 299.3267,
        "meta_arg_of_pericenter": 341.7536,
        "meta_mean_anomaly": 48.5659,
        "meta_ephemeris_type": 0,
        "meta_classification_type": "U",
        "meta_norad_cat_id": 40664,
        "meta_element_set_no": 999,
        "meta_rev_at_epoch": 3861,
        "meta_bstar": 0,
        "meta_mean_motion_dot": -2.12e-06,
        "meta_mean_motion_ddot": 0,
        "tle_line1": "1 40664U 15026B   25349.89891997 -.00000212  00000+0  00000+0 0  9991",
        "tle_line2": "2 40664   0.0207 299.3267 0002426 341.7536  48.5659  1.00271624 38610"
      },
      "geometry": {
        "type": "Point",
        "coordinates": [
          141.40222214260896,
          -0.005170308427205326
        ]
      }
    },
    {
      "type": "Feature",
      "properties": {
        "norad_id": 40874,
        "name": "INTELSAT 34 (IS-34)",
        "group": "intelsat",
        "lat": -0.012120916321845494,
        "lon": 164.6848532885579,
        "alt_km": 35783.57664321451,
        "timestamp": "2025-12-16T08:59:42.826916+00:00",
        "meta_object_name": "INTELSAT 34 (IS-34)",
        "meta_object_id": "2015-039A",
        "meta_epoch": "2025-12-15T04:46:38.428896",
        "meta_mean_motion": 1.00271545,
        "meta_eccentricity": 6.597e-05,
        "meta_inclination": 0.0124,
        "meta_ra_of_asc_node": 311.7695,
        "meta_arg_of_pericenter": 201.039,
        "meta_mean_anomaly": 307.4611,
        "meta_ephemeris_type": 0,
        "meta_classification_type": "U",
        "meta_norad_cat_id": 40874,
        "meta_element_set_no": 999,
        "meta_rev_at_epoch": 3778,
        "meta_bstar": 0,
        "meta_mean_motion_dot": -2.65e-06,
        "meta_mean_motion_ddot": 0,
        "tle_line1": "1 40874U 15039A   25349.19905589 -.00000265  00000+0  00000+0 0  9992",
        "tle_line2": "2 40874   0.0124 311.7695 0000659 201.0390 307.4611  1.00271545 37781"
      },
      "geometry": {
        "type": "Point",
        "coordinates": [
          164.6848532885579,
          -0.012120916321845494
        ]
      }
    }
  ]
}